{
  "type": "FeatureCollection",
  "features": [
    {
      "type": "Feature",
      "properties": {
        "norad_id": 36036,
        "name": "SMOS",
        "group": "resource",
        "lat": -10.513927553930431,
        "lon": -178.6330772816574,
        "alt_km": 763.5875204494623,
        "timestamp": "2025-12-20T20:38:44.100871+00:00",
        "meta_object_name": "SMOS",
        "meta_object_id": "2009-059A",
        "meta_epoch": "2025-12-20T12:21:18.783072",
        "meta_mean_motion": 14.39747686,
        "meta_eccentricity": 0.0001079,
        "meta_inclination": 98.438,
        "meta_ra_of_asc_node": 179.4481,
        "meta_arg_of_pericenter": 83.7466,
        "meta_mean_anomaly": 276.3845,
        "meta_ephemeris_type": 0,
        "meta_classification_type": "U",
        "meta_norad_cat_id": 36036,
        "meta_element_set_no": 999,
        "meta_rev_at_epoch": 84774,
        "meta_bstar": 0.00010402639,
        "meta_mean_motion_dot": 2.82e-06,
        "meta_mean_motion_ddot": 0,
        "tle_line1": "1 36036U 09059A   25354.51480073  .00000282  00000+0  10403-3 0  9990",
        "tle_line2": "2 36036  98.4380 179.4481 0001079  83.7466 276.3845 14.39747686847747"
      },
      "geometry": {
        "type": "Point",
        "coordinates": [
          -178.6330772816574,
          -10.513927553930431
        ]
      }
    },
    {
      "type": "Feature",
      "properties": {
        "norad_id": 36110,
        "name": "YAOGAN-7",
        "group": "resource",
        "lat": -23.00260873102926,
        "lon": 53.152314445519664,
        "alt_km": 631.4797537100048,
        "timestamp": "2025-12-20T20:38:44.100881+00:00",
        "meta_object_name": "YAOGAN-7",
        "meta_object_id": "2009-069A",
        "meta_epoch": "2025-12-20T14:51:06.634656",
        "meta_mean_motion": 14.77742759,
        "meta_eccentricity": 0.00233458,
        "meta_inclination": 98.0296,
        "meta_ra_of_asc_node": 236.3475,
        "meta_arg_of_pericenter": 254.4203,
        "meta_mean_anomaly": 105.443,
        "meta_ephemeris_type": 0,
        "meta_classification_type": "U",
        "meta_norad_cat_id": 36110,
        "meta_element_set_no": 999,
        "meta_rev_at_epoch": 86325,
        "meta_bstar": 6.6216441e-05,
        "meta_mean_motion_dot": 4.23e-06,
        "meta_mean_motion_ddot": 0,
        "tle_line1": "1 36110U 09069A   25354.61882679  .00000423  00000+0  66216-4 0  9994",
        "tle_line2": "2 36110  98.0296 236.3475 0023345 254.4203 105.4430 14.77742759863258"
      },
      "geometry": {
        "type": "Point",
        "coordinates": [
          53.152314445519664,
          -23.00260873102926
        ]
      }
    },
    {
      "type": "Feature",
      "properties": {
        "norad_id": 36605,
        "name": "TANDEM-X",
        "group": "resource",
        "lat": -37.25304703606773,
        "lon": 174.41496639509305,
        "alt_km": 515.8014280537955,
        "timestamp": "2025-12-20T20:38:44.100891+00:00",
        "meta_object_name": "TANDEM-X",
        "meta_object_id": "2010-030A",
        "meta_epoch": "2025-12-20T11:47:12.910560",
        "meta_mean_motion": 15.19154059,
        "meta_eccentricity": 0.00017998,
        "meta_inclination": 97.4444,
        "meta_ra_of_asc_node": 359.7582,
        "meta_arg_of_pericenter": 78.1402,
        "meta_mean_anomaly": 282.0034,
        "meta_ephemeris_type": 0,
        "meta_classification_type": "U",
        "meta_norad_cat_id": 36605,
        "meta_element_set_no": 999,
        "meta_rev_at_epoch": 85951,
        "meta_bstar": 3.1882246e-05,
        "meta_mean_motion_dot": 6.03e-06,
        "meta_mean_motion_ddot": 0,
        "tle_line1": "1 36605U 10030A   25354.49112165  .00000603  00000+0  31882-4 0  9996",
        "tle_line2": "2 36605  97.4444 359.7582 0001799  78.1402 282.0034 15.19154059859518"
      },
      "geometry": {
        "type": "Point",
        "coordinates": [
          174.41496639509305,
          -37.25304703606773
        ]
      }
    },
    {
      "type": "Feature",
      "properties": {
        "norad_id": 36795,
        "name": "CARTOSAT-2B",
        "group": "resource",
        "lat": 20.015941455578922,
        "lon": -133.51655502004604,
        "alt_km": 636.0646092063316,
        "timestamp": "2025-12-20T20:38:44.100901+00:00",
        "meta_object_name": "CARTOSAT-2B",
        "meta_object_id": "2010-035A",
        "meta_epoch": "2025-12-20T15:03:17.857728",
        "meta_mean_motion": 14.78734947,
        "meta_eccentricity": 0.00128207,
        "meta_inclination": 97.7846,
        "meta_ra_of_asc_node": 43.4016,
        "meta_arg_of_pericenter": 53.2226,
        "meta_mean_anomaly": 307.016,
        "meta_ephemeris_type": 0,
        "meta_classification_type": "U",
        "meta_norad_cat_id": 36795,
        "meta_element_set_no": 999,
        "meta_rev_at_epoch": 83346,
        "meta_bstar": 8.1377629e-05,
        "meta_mean_motion_dot": 5.48e-06,
        "meta_mean_motion_ddot": 0,
        "tle_line1": "1 36795U 10035A   25354.62729002  .00000548  00000+0  81378-4 0  9993",
        "tle_line2": "2 36795  97.7846  43.4016 0012820  53.2226 307.0160 14.78734947833469"
      },
      "geometry": {
        "type": "Point",
        "coordinates": [
          -133.51655502004604,
          20.015941455578922
        ]
      }
    },
    {
      "type": "Feature",
      "properties": {
        "norad_id": 36834,
        "name": "YAOGAN-10",
        "group": "resource",
        "lat": 51.06199847775466,
        "lon": 4.707743882606195,
        "alt_km": 609.1299268580024,
        "timestamp": "2025-12-20T20:38:44.100912+00:00",
        "meta_object_name": "YAOGAN-10",
        "meta_object_id": "2010-038A",
        "meta_epoch": "2025-12-20T14:37:44.976576",
        "meta_mean_motion": 14.84635318,
        "meta_eccentricity": 0.0001419,
        "meta_inclination": 97.9133,
        "meta_ra_of_asc_node": 14.3715,
        "meta_arg_of_pericenter": 76.8915,
        "meta_mean_anomaly": 75.9235,
        "meta_ephemeris_type": 0,
        "meta_classification_type": "U",
        "meta_norad_cat_id": 36834,
        "meta_element_set_no": 999,
        "meta_rev_at_epoch": 83070,
        "meta_bstar": 0.00014657378,
        "meta_mean_motion_dot": 1.185e-05,
        "meta_mean_motion_ddot": 0,
        "tle_line1": "1 36834U 10038A   25354.60954834  .00001185  00000+0  14657-3 0  9994",
        "tle_line2": "2 36834  97.9133  14.3715 0001419  76.8915  75.9235 14.84635318830702"
      },
      "geometry": {
        "type": "Point",
        "coordinates": [
          4.707743882606195,
          51.06199847775466
        ]
      }
    },
    {
      "type": "Feature",
      "properties": {
        "norad_id": 37216,
        "name": "COSMO-SKYMED 4",
        "group": "resource",
        "lat": -79.37346151994993,
        "lon": -51.51444734664827,
        "alt_km": 630.874720770259,
        "timestamp": "2025-12-20T20:38:44.100922+00:00",
        "meta_object_name": "COSMO-SKYMED 4",
        "meta_object_id": "2010-060A",
        "meta_epoch": "2025-12-20T14:36:08.986176",
        "meta_mean_motion": 14.82155254,
        "meta_eccentricity": 0.00014277,
        "meta_inclination": 97.8799,
        "meta_ra_of_asc_node": 175.8128,
        "meta_arg_of_pericenter": 84.4405,
        "meta_mean_anomaly": 275.6971,
        "meta_ephemeris_type": 0,
        "meta_classification_type": "U",
        "meta_norad_cat_id": 37216,
        "meta_element_set_no": 999,
        "meta_rev_at_epoch": 81811,
        "meta_bstar": 0.00012544434,
        "meta_mean_motion_dot": 9.47e-06,
        "meta_mean_motion_ddot": 0,
        "tle_line1": "1 37216U 10060A   25354.60843734  .00000947  00000+0  12544-3 0  9998",
        "tle_line2": "2 37216  97.8799 175.8128 0001427  84.4405 275.6971 14.82155254818114"
      },
      "geometry": {
        "type": "Point",
        "coordinates": [
          -51.51444734664827,
          -79.37346151994993
        ]
      }
    },
    {
      "type": "Feature",
      "properties": {
        "norad_id": 37387,
        "name": "RESOURCESAT-2",
        "group": "resource",
        "lat": -77.15247118738753,
        "lon": -164.32599249842937,
        "alt_km": 829.4457690328736,
        "timestamp": "2025-12-20T20:38:44.100932+00:00",
        "meta_object_name": "RESOURCESAT-2",
        "meta_object_id": "2011-015A",
        "meta_epoch": "2025-12-20T10:58:38.511552",
        "meta_mean_motion": 14.21600119,
        "meta_eccentricity": 0.00060683,
        "meta_inclination": 98.7867,
        "meta_ra_of_asc_node": 57.9742,
        "meta_arg_of_pericenter": 21.8753,
        "meta_mean_anomaly": 338.2682,
        "meta_ephemeris_type": 0,
        "meta_classification_type": "U",
        "meta_norad_cat_id": 37387,
        "meta_element_set_no": 999,
        "meta_rev_at_epoch": 76078,
        "meta_bstar": 6.714112e-05,
        "meta_mean_motion_dot": 1.03e-06,
        "meta_mean_motion_ddot": 0,
        "tle_line1": "1 37387U 11015A   25354.45739018  .00000103  00000+0  67141-4 0  9998",
        "tle_line2": "2 37387  98.7867  57.9742 0006068  21.8753 338.2682 14.21600119760780"
      },
      "geometry": {
        "type": "Point",
        "coordinates": [
          -164.32599249842937,
          -77.15247118738753
        ]
      }
    }
  ]
}